ION SCV-010             
1 56192U 23054Q   26177.14212663  .00005154  00000+0  20119-3 0  9995
2 56192  97.3780  66.5294 0013185 165.3619 194.8004 15.26267544177564
TELEOS-2                
1 56310U 23057C   26176.48744824  .00000683  00000+0 -34834-6 0  9990
2 56310   9.9873 143.7435 0000208 341.8813  18.1393 14.96397054174047
SNIPE 4                 
1 56744U 23072B   26177.16628216  .00020552  00000+0  47284-3 0  9996
2 56744  97.5247  23.4581 0003788 294.9676  65.1177 15.42668679171497
SNIPE 2                 
1 56745U 23072C   26177.18272481  .00029913  00000+0  58700-3 0  9993
2 56745  97.5240  26.5819 0003271 337.1123  22.9980 15.47287741171634
2023-072G               
1 56749U 23072G   26177.22598512  .00031375  00000+0  53954-3 0  9999
2 56749  97.4896  25.4408 0001825 328.2548  31.8594 15.51063385171867
GEISAT PRECURSOR        
1 56934U 23084C   26177.21662797  .00007949  00000+0  23831-3 0  9995
2 56934  97.6227 318.4679 0004258 319.8643  40.2285 15.34765947168910
BLACKJACK ACES-3        
1 56950U 23084U   26176.93430419  .00005909  00000+0  28942-3 0  9997
2 56950  97.6215 312.1920 0001831  14.0642 346.0642 15.18548370168490
BLACKJACK ACES-2        
1 56955U 23084Z   26176.94028885  .00007374  00000+0  35998-3 0  9990
2 56955  97.6211 312.2826 0000703 107.2621 252.8689 15.18577333168504
BLACKJACK ACES-1        
1 56956U 23084AA  26176.99408411  .00008476  00000+0  41347-3 0  9992
2 56956  97.6199 312.1097 0001114 127.0838 233.0498 15.18556178118234
ION SCV-011             
1 56957U 23084AB  26176.57462191  .00005782  00000+0  20882-3 0  9990
2 56957  98.1379   4.6317 0007401  18.8182 341.3328 15.28920751167099
GHOST-3                 
1 56958U 23084AC  26177.14863207  .00019990  00000+0  38158-3 0  9999
2 56958  97.6216 326.2028 0005827 257.0522 103.0077 15.48160439169403
TOMORROW-R2             
1 56962U 23084AG  26176.96495323  .03118299  26056-5  82617-3 0  9992
2 56962  97.5996 342.6245 0011040 254.8146 105.1926 16.28287534170476
AFR-1                   
1 56964U 23084AJ  26177.20058558  .00005002  00000+0  18233-3 0  9999
2 56964  97.6278 314.1090 0009224 312.4187  47.6271 15.28624965168608
METEOR-M2 3             
1 57166U 23091A   26177.23256828 -.00000002  00000+0  17969-4 0  9997
2 57166  98.6079 232.0257 0004791 133.1982 226.9598 14.24047445155800
UMKA 1 (RS40S)          
1 57172U 23091G   26177.17351538  .00007544  00000+0  34324-3 0  9991
2 57172  97.5052 235.8361 0014297  89.9468 270.3405 15.20916405165373
2023-091H               
1 57173U 23091H   26177.15047242  .00013052  00000+0  46757-3 0  9998
2 57173  97.5051 240.4152 0011154  86.0629 274.1886 15.28822194165676
2023-091J               
1 57174U 23091J   26177.17720148  .00004265  00000+0  23807-3 0  9991
2 57174  97.5054 230.1454 0014772 114.9730 245.3037 15.13985778164998
CUBEBEL 2 (EU11S)       
1 57175U 23091K   26177.14824432  .00015014  00000+0  52844-3 0  9997
2 57175  97.5054 240.4456 0011136  87.5029 272.7486 15.29367260165677
SITRO-AIS 5 (KATYS)     
1 57176U 23091L   26177.16350317  .00013814  00000+0  48203-3 0  9996
2 57176  97.5063 241.1486 0012478  75.5660 284.6963 15.29652546165718
ZORKIY-2M 1             
1 57177U 23091M   26177.15936612  .00008133  00000+0  36862-3 0  9990
2 57177  97.5093 236.0961 0014801  87.3955 272.8974 15.21015805165368
CUBESX-HSE 3 (RS42S)    
1 57178U 23091N   26177.19151979  .00015956  00000+0  52668-3 0  9993
2 57178  97.5094 242.8928 0011583  66.5819 293.6639 15.31431857165808
MONITOR-3 (RS58S)       
1 57180U 23091Q   26177.17049632  .00011923  00000+0  43781-3 0  9992
2 57180  97.5087 240.6826 0012803  73.0465 287.2176 15.28014174165666
MONITOR-4 (RS57S)       
1 57182U 23091S   26177.14905345  .00011538  00000+0  42269-3 0  9995
2 57182  97.5080 240.6328 0012794  73.3306 286.9337 15.28098226165669
MONITOR-2 (RS39S)       
1 57184U 23091U   26177.14021722  .00005312  00000+0  25671-3 0  9996
2 57184  97.5074 235.3652 0012749  84.0631 276.2056 15.18988558165312
SVYATOBOR 1 (RS60S)     
1 57187U 23091X   26177.16991020  .00010250  00000+0  39169-3 0  9992
2 57187  97.5093 241.0367 0010572  67.3905 292.8450 15.26760677165684
HORS 1                  
1 57188U 23091Y   26177.15481525  .00009920  00000+0  37800-3 0  9998
2 57188  97.5069 240.7826 0010021  67.6016 292.6283 15.26870442165683
VIZARD-METEO (RS38S)    
1 57189U 23091Z   26177.00666080  .00019402  00000+0  54951-3 0  9996
2 57189  97.5095 246.6695 0007628  50.4472 309.7445 15.36290982166044
SITRO-AIS 6 (CHIRKIN)   
1 57192U 23091AC  26177.16324198  .00011231  00000+0  43713-3 0  9994
2 57192  97.5071 240.2197 0012901  78.8011 281.4677 15.26097535165659
SITRO-AIS 8 (ANOKHIN)   
1 57193U 23091AD  26177.16474492  .00016048  00000+0  51457-3 0  9993
2 57193  97.5059 242.7752 0011416  72.0322 288.2163 15.32365947165827
SITRO-AIS 7 (FARTUSHNIY)
1 57194U 23091AE  26177.16823488  .00011244  00000+0  44180-3 0  9995
2 57194  97.5069 240.0451 0012770  79.7697 280.4980 15.25782087165640
