OBJECT_NAME,OBJECT_ID,EPOCH,MEAN_MOTION,ECCENTRICITY,INCLINATION,RA_OF_ASC_NODE,ARG_OF_PERICENTER,MEAN_ANOMALY,EPHEMERIS_TYPE,CLASSIFICATION_TYPE,NORAD_CAT_ID,ELEMENT_SET_NO,REV_AT_EPOCH,BSTAR,MEAN_MOTION_DOT,MEAN_MOTION_DDOT
ION SCV-010,2023-054Q,2026-06-26T03:24:39.740832,15.26267544,.0013185,97.3780,66.5294,165.3619,194.8004,0,U,56192,999,17756,.20119E-3,.5154E-4,0
TELEOS-2,2023-057C,2026-06-25T11:41:55.527936,14.96397054,.00002084,9.9873,143.7435,341.8813,18.1393,0,U,56310,999,17404,-.348345E-6,.683E-5,0
SNIPE 4,2023-072B,2026-06-26T03:59:26.778624,15.42668679,.0003788,97.5247,23.4581,294.9676,65.1177,0,U,56744,999,17149,.47284E-3,.20552E-3,0
SNIPE 2,2023-072C,2026-06-26T04:23:07.423584,15.47287741,.0003271,97.5240,26.5819,337.1123,22.9980,0,U,56745,999,17163,.587E-3,.29913E-3,0
2023-072G,2023-072G,2026-06-26T05:25:25.114368,15.51063385,.0001825,97.4896,25.4408,328.2548,31.8594,0,U,56749,999,17186,.53954E-3,.31375E-3,0
GEISAT PRECURSOR,2023-084C,2026-06-26T05:11:56.656608,15.34765947,.0004258,97.6227,318.4679,319.8643,40.2285,0,U,56934,999,16891,.23831E-3,.7949E-4,0
BLACKJACK ACES-3,2023-084U,2026-06-25T22:25:23.882016,15.18548370,.0001831,97.6215,312.1920,14.0642,346.0642,0,U,56950,999,16849,.28942E-3,.5909E-4,0
BLACKJACK ACES-2,2023-084Z,2026-06-25T22:34:00.956640,15.18577333,.0000703,97.6211,312.2826,107.2621,252.8689,0,U,56955,999,16850,.35998E-3,.7374E-4,0
BLACKJACK ACES-1,2023-084AA,2026-06-25T23:51:28.867104,15.18556178,.0001114,97.6199,312.1097,127.0838,233.0498,0,U,56956,999,11823,.41347E-3,.8476E-4,0
ION SCV-011,2023-084AB,2026-06-25T13:47:27.333024,15.28920751,.0007401,98.1379,4.6317,18.8182,341.3328,0,U,56957,999,16709,.20882E-3,.5782E-4,0
GHOST-3,2023-084AC,2026-06-26T03:34:01.810848,15.48160439,.0005827,97.6216,326.2028,257.0522,103.0077,0,U,56958,999,16940,.38158E-3,.1999E-3,0
TOMORROW-R2,2023-084AG,2026-06-25T23:09:31.959072,16.28287534,.001104,97.5996,342.6245,254.8146,105.1926,0,U,56962,999,17047,.82617E-3,.3118299E-1,.26056E-5
AFR-1,2023-084AJ,2026-06-26T04:48:50.594112,15.28624965,.0009224,97.6278,314.1090,312.4187,47.6271,0,U,56964,999,16860,.18233E-3,.5002E-4,0
METEOR-M2 3,2023-091A,2026-06-26T05:34:53.899392,14.24047445,.0004791,98.6079,232.0257,133.1982,226.9598,0,U,57166,999,15580,.17969E-4,-.2E-7,0
UMKA 1 (RS40S),2023-091G,2026-06-26T04:09:51.728832,15.20916405,.0014297,97.5052,235.8361,89.9468,270.3405,0,U,57172,999,16537,.34324E-3,.7544E-4,0
2023-091H,2023-091H,2026-06-26T03:36:40.817088,15.28822194,.0011154,97.5051,240.4152,86.0629,274.1886,0,U,57173,999,16567,.46757E-3,.13052E-3,0
2023-091J,2023-091J,2026-06-26T04:15:10.207872,15.13985778,.0014772,97.5054,230.1454,114.9730,245.3037,0,U,57174,999,16499,.23807E-3,.4265E-4,0
CUBEBEL 2 (EU11S),2023-091K,2026-06-26T03:33:28.309248,15.29367260,.0011136,97.5054,240.4456,87.5029,272.7486,0,U,57175,999,16567,.52844E-3,.15014E-3,0
SITRO-AIS 5 (KATYS),2023-091L,2026-06-26T03:55:26.673888,15.29652546,.0012478,97.5063,241.1486,75.5660,284.6963,0,U,57176,999,16571,.48203E-3,.13814E-3,0
ZORKIY-2M 1,2023-091M,2026-06-26T03:49:29.232768,15.21015805,.0014801,97.5093,236.0961,87.3955,272.8974,0,U,57177,999,16536,.36862E-3,.8133E-4,0
CUBESX-HSE 3 (RS42S),2023-091N,2026-06-26T04:35:47.309856,15.31431857,.0011583,97.5094,242.8928,66.5819,293.6639,0,U,57178,999,16580,.52668E-3,.15956E-3,0
MONITOR-3 (RS58S),2023-091Q,2026-06-26T04:05:30.882048,15.28014174,.0012803,97.5087,240.6826,73.0465,287.2176,0,U,57180,999,16566,.43781E-3,.11923E-3,0
MONITOR-4 (RS57S),2023-091S,2026-06-26T03:34:38.218080,15.28098226,.0012794,97.5080,240.6328,73.3306,286.9337,0,U,57182,999,16566,.42269E-3,.11538E-3,0
MONITOR-2 (RS39S),2023-091U,2026-06-26T03:21:54.767808,15.18988558,.0012749,97.5074,235.3652,84.0631,276.2056,0,U,57184,999,16531,.25671E-3,.5312E-4,0
SVYATOBOR 1 (RS60S),2023-091X,2026-06-26T04:04:40.241280,15.26760677,.0010572,97.5093,241.0367,67.3905,292.8450,0,U,57187,999,16568,.39169E-3,.1025E-3,0
HORS 1,2023-091Y,2026-06-26T03:42:56.037600,15.26870442,.0010021,97.5069,240.7826,67.6016,292.6283,0,U,57188,999,16568,.378E-3,.992E-4,0
VIZARD-METEO (RS38S),2023-091Z,2026-06-26T00:09:35.493120,15.36290982,.0007628,97.5095,246.6695,50.4472,309.7445,0,U,57189,999,16604,.54951E-3,.19402E-3,0
SITRO-AIS 6 (CHIRKIN),2023-091AC,2026-06-26T03:55:04.107072,15.26097535,.0012901,97.5071,240.2197,78.8011,281.4677,0,U,57192,999,16565,.43713E-3,.11231E-3,0
SITRO-AIS 8 (ANOKHIN),2023-091AD,2026-06-26T03:57:13.961088,15.32365947,.0011416,97.5059,242.7752,72.0322,288.2163,0,U,57193,999,16582,.51457E-3,.16048E-3,0
SITRO-AIS 7 (FARTUSHNIY),2023-091AE,2026-06-26T04:02:15.493632,15.25782087,.001277,97.5069,240.0451,79.7697,280.4980,0,U,57194,999,16564,.4418E-3,.11244E-3,0
